{
  "type": "FeatureCollection",
  "features": [
    {
      "type": "Feature",
      "properties": {
        "norad_id": 32143,
        "name": "FENGYUN 1C DEB",
        "group": "fengyun-1c-debris",
        "lat": -77.80052908594774,
        "lon": 2.2239634678282973,
        "alt_km": 906.1979308407981,
        "timestamp": "2025-12-06T16:45:43.007741+00:00",
        "meta_object_name": "FENGYUN 1C DEB",
        "meta_object_id": "1999-025CSM",
        "meta_epoch": "2025-12-03T04:28:30.343584",
        "meta_mean_motion": 14.17959367,
        "meta_eccentricity": 0.01041232,
        "meta_inclination": 98.5963,
        "meta_ra_of_asc_node": 314.4234,
        "meta_arg_of_pericenter": 136.0042,
        "meta_mean_anomaly": 224.9481,
        "meta_ephemeris_type": 0,
        "meta_classification_type": "U",
        "meta_norad_cat_id": 32143,
        "meta_element_set_no": 999,
        "meta_rev_at_epoch": 95798,
        "meta_bstar": 0.00020859227,
        "meta_mean_motion_dot": 4.09e-06,
        "meta_mean_motion_ddot": 0,
        "tle_line1": "1 32143U 99025CSM 25337.18646231  .00000409  00000+0  20859-3 0  9998",
        "tle_line2": "2 32143  98.5963 314.4234 0104123 136.0042 224.9481 14.17959367957983"
      },
      "geometry": {
        "type": "Point",
        "coordinates": [
          2.2239634678282973,
          -77.80052908594774
        ]
      }
    },
    {
      "type": "Feature",
      "properties": {
        "norad_id": 32150,
        "name": "FENGYUN 1C DEB",
        "group": "fengyun-1c-debris",
        "lat": -78.54413314261846,
        "lon": 129.84878581781024,
        "alt_km": 819.7323359725615,
        "timestamp": "2025-12-06T16:45:43.007752+00:00",
        "meta_object_name": "FENGYUN 1C DEB",
        "meta_object_id": "1999-025CSU",
        "meta_epoch": "2025-12-05T08:19:59.789856",
        "meta_mean_motion": 14.60648055,
        "meta_eccentricity": 0.01718442,
        "meta_inclination": 99.1916,
        "meta_ra_of_asc_node": 1.3864,
        "meta_arg_of_pericenter": 89.9667,
        "meta_mean_anomaly": 272.1222,
        "meta_ephemeris_type": 0,
        "meta_classification_type": "U",
        "meta_norad_cat_id": 32150,
        "meta_element_set_no": 999,
        "meta_rev_at_epoch": 97598,
        "meta_bstar": 0.00021099285,
        "meta_mean_motion_dot": 1.198e-05,
        "meta_mean_motion_ddot": 0,
        "tle_line1": "1 32150U 99025CSU 25339.34721979  .00001198  00000+0  21099-3 0  9992",
        "tle_line2": "2 32150  99.1916   1.3864 0171844  89.9667 272.1222 14.60648055975985"
      },
      "geometry": {
        "type": "Point",
        "coordinates": [
          129.84878581781024,
          -78.54413314261846
        ]
      }
    },
    {
      "type": "Feature",
      "properties": {
        "norad_id": 32152,
        "name": "FENGYUN 1C DEB",
        "group": "fengyun-1c-debris",
        "lat": 0.21332092239906356,
        "lon": -38.435720584438705,
        "alt_km": 677.1087867628348,
        "timestamp": "2025-12-06T16:45:43.007762+00:00",
        "meta_object_name": "FENGYUN 1C DEB",
        "meta_object_id": "1999-025CSW",
        "meta_epoch": "2025-12-04T06:13:51.350304",
        "meta_mean_motion": 14.56482444,
        "meta_eccentricity": 0.0055324,
        "meta_inclination": 98.7599,
        "meta_ra_of_asc_node": 138.9704,
        "meta_arg_of_pericenter": 227.1779,
        "meta_mean_anomaly": 132.4761,
        "meta_ephemeris_type": 0,
        "meta_classification_type": "U",
        "meta_norad_cat_id": 32152,
        "meta_element_set_no": 999,
        "meta_rev_at_epoch": 62489,
        "meta_bstar": 0.0046274,
        "meta_mean_motion_dot": 0.00021013,
        "meta_mean_motion_ddot": 0,
        "tle_line1": "1 32152U 99025CSW 25338.25962211  .00021013  00000+0  46274-2 0  9998",
        "tle_line2": "2 32152  98.7599 138.9704 0055324 227.1779 132.4761 14.56482444624893"
      },
      "geometry": {
        "type": "Point",
        "coordinates": [
          -38.435720584438705,
          0.21332092239906356
        ]
      }
    },
    {
      "type": "Feature",
      "properties": {
        "norad_id": 32153,
        "name": "FENGYUN 1C DEB",
        "group": "fengyun-1c-debris",
        "lat": -35.053704182076274,
        "lon": -170.39131276273037,
        "alt_km": 720.2923242379147,
        "timestamp": "2025-12-06T16:45:43.007772+00:00",
        "meta_object_name": "FENGYUN 1C DEB",
        "meta_object_id": "1999-025CSX",
        "meta_epoch": "2025-12-06T06:58:52.077792",
        "meta_mean_motion": 14.48689639,
        "meta_eccentricity": 0.02070416,
        "meta_inclination": 98.7699,
        "meta_ra_of_asc_node": 182.9675,
        "meta_arg_of_pericenter": 240.8055,
        "meta_mean_anomaly": 117.2286,
        "meta_ephemeris_type": 0,
        "meta_classification_type": "U",
        "meta_norad_cat_id": 32153,
        "meta_element_set_no": 999,
        "meta_rev_at_epoch": 97130,
        "meta_bstar": 0.00058992687,
        "meta_mean_motion_dot": 2.858e-05,
        "meta_mean_motion_ddot": 0,
        "tle_line1": "1 32153U 99025CSX 25340.29088053  .00002858  00000+0  58993-3 0  9997",
        "tle_line2": "2 32153  98.7699 182.9675 0207041 240.8055 117.2286 14.48689639971305"
      },
      "geometry": {
        "type": "Point",
        "coordinates": [
          -170.39131276273037,
          -35.053704182076274
        ]
      }
    },
    {
      "type": "Feature",
      "properties": {
        "norad_id": 32155,
        "name": "FENGYUN 1C DEB",
        "group": "fengyun-1c-debris",
        "lat": -71.58721107619675,
        "lon": -61.623246305102526,
        "alt_km": 745.4267871347884,
        "timestamp": "2025-12-06T16:45:43.007783+00:00",
        "meta_object_name": "FENGYUN 1C DEB",
        "meta_object_id": "1999-025CSZ",
        "meta_epoch": "2025-12-04T13:09:10.027872",
        "meta_mean_motion": 14.32912866,
        "meta_eccentricity": 0.0069286,
        "meta_inclination": 98.9526,
        "meta_ra_of_asc_node": 267.8922,
        "meta_arg_of_pericenter": 264.2615,
        "meta_mean_anomaly": 95.0665,
        "meta_ephemeris_type": 0,
        "meta_classification_type": "U",
        "meta_norad_cat_id": 32155,
        "meta_element_set_no": 999,
        "meta_rev_at_epoch": 70105,
        "meta_bstar": 0.001161,
        "meta_mean_motion_dot": 3.211e-05,
        "meta_mean_motion_ddot": 0,
        "tle_line1": "1 32155U 99025CSZ 25338.54803273  .00003211  00000+0  11610-2 0  9991",
        "tle_line2": "2 32155  98.9526 267.8922 0069286 264.2615  95.0665 14.32912866701056"
      },
      "geometry": {
        "type": "Point",
        "coordinates": [
          -61.623246305102526,
          -71.58721107619675
        ]
      }
    },
    {
      "type": "Feature",
      "properties": {
        "norad_id": 32156,
        "name": "FENGYUN 1C DEB",
        "group": "fengyun-1c-debris",
        "lat": -45.36576862665375,
        "lon": 159.412286783423,
        "alt_km": 821.7951665421333,
        "timestamp": "2025-12-06T16:45:43.007793+00:00",
        "meta_object_name": "FENGYUN 1C DEB",
        "meta_object_id": "1999-025CTA",
        "meta_epoch": "2025-12-06T05:14:19.057632",
        "meta_mean_motion": 14.31934388,
        "meta_eccentricity": 0.0082381,
        "meta_inclination": 99.3545,
        "meta_ra_of_asc_node": 149.2841,
        "meta_arg_of_pericenter": 76.0977,
        "meta_mean_anomaly": 284.935,
        "meta_ephemeris_type": 0,
        "meta_classification_type": "U",
        "meta_norad_cat_id": 32156,
        "meta_element_set_no": 999,
        "meta_rev_at_epoch": 64727,
        "meta_bstar": 0.00056337744,
        "meta_mean_motion_dot": 1.518e-05,
        "meta_mean_motion_ddot": 0,
        "tle_line1": "1 32156U 99025CTA 25340.21827613  .00001518  00000+0  56338-3 0  9998",
        "tle_line2": "2 32156  99.3545 149.2841 0082381  76.0977 284.9350 14.31934388647272"
      },
      "geometry": {
        "type": "Point",
        "coordinates": [
          159.412286783423,
          -45.36576862665375
        ]
      }
    },
    {
      "type": "Feature",
      "properties": {
        "norad_id": 32160,
        "name": "FENGYUN 1C DEB",
        "group": "fengyun-1c-debris",
        "lat": -1.1522563311947354,
        "lon": 137.84638390447745,
        "alt_km": 713.5833117300945,
        "timestamp": "2025-12-06T16:45:43.007803+00:00",
        "meta_object_name": "FENGYUN 1C DEB",
        "meta_object_id": "1999-025CTE",
        "meta_epoch": "2025-12-04T06:18:04.586976",
        "meta_mean_motion": 14.37533289,
        "meta_eccentricity": 0.0082414,
        "meta_inclination": 98.8812,
        "meta_ra_of_asc_node": 135.1511,
        "meta_arg_of_pericenter": 23.9168,
        "meta_mean_anomaly": 336.5812,
        "meta_ephemeris_type": 0,
        "meta_classification_type": "U",
        "meta_norad_cat_id": 32160,
        "meta_element_set_no": 999,
        "meta_rev_at_epoch": 95765,
        "meta_bstar": 0.00077758,
        "meta_mean_motion_dot": 2.375e-05,
        "meta_mean_motion_ddot": 0,
        "tle_line1": "1 32160U 99025CTE 25338.26255309  .00002375  00000+0  77758-3 0  9993",
        "tle_line2": "2 32160  98.8812 135.1511 0082414  23.9168 336.5812 14.37533289957650"
      },
      "geometry": {
        "type": "Point",
        "coordinates": [
          137.84638390447745,
          -1.1522563311947354
        ]
      }
    }
  ]
}